[{"OBJECT_NAME":"STARLINK-30499","OBJECT_ID":"2023-147F","EPOCH":"2026-03-09T07:25:00.382944","MEAN_MOTION":15.27574229,"ECCENTRICITY":0.0001804,"INCLINATION":43.0037,"RA_OF_ASC_NODE":182.3695,"ARG_OF_PERICENTER":279.5416,"MEAN_ANOMALY":80.5232,"EPHEMERIS_TYPE":0,"CLASSIFICATION_TYPE":"U","NORAD_CAT_ID":57918,"ELEMENT_SET_NO":999,"REV_AT_EPOCH":13827,"BSTAR":5.9523008e-5,"MEAN_MOTION_DOT":1.376e-5,"MEAN_MOTION_DDOT":0},{"OBJECT_NAME":"OBJECT F","OBJECT_ID":"2021-022F","EPOCH":"2026-03-09T23:37:37.165152","MEAN_MOTION":15.31317672,"ECCENTRICITY":0.00120882,"INCLINATION":97.3982,"RA_OF_ASC_NODE":329.8375,"ARG_OF_PERICENTER":85.9268,"MEAN_ANOMALY":274.3355,"EPHEMERIS_TYPE":0,"CLASSIFICATION_TYPE":"U","NORAD_CAT_ID":47937,"ELEMENT_SET_NO":999,"REV_AT_EPOCH":27452,"BSTAR":0.00038690553,"MEAN_MOTION_DOT":0.00011656,"MEAN_MOTION_DDOT":0}]
